OSCAR 7 (AO-7)          
1 07530U 74089B   18077.52966414 -.00000052  00000-0 -46002-4 0  9998
2 07530 101.6762  46.2492 0012218 149.1965 321.4973 12.53631576983239
UOSAT 2 (UO-11)         
1 14781U 84021B   18077.58740179  .00000083  00000-0  16402-4 0  9998
2 14781  97.6611 117.6112 0009089  29.6484 330.5244 14.82987733810014
LUSAT (LO-19)           
1 20442U 90005G   18077.36532109 -.00000001  00000-0  15900-4 0  9999
2 20442  98.6031  16.4531 0012804  60.9480 299.2985 14.32889370470823
ITAMSAT (IO-26)         
1 22826U 93061D   18077.50959655 -.00000004  00000-0  16302-4 0  9997
2 22826  98.8473  52.0783 0007976 237.5856 122.4554 14.30355456276544
RADIO ROSTO (RS-15)     
1 23439U 94085A   18077.53019706 -.00000041  00000-0  32737-4 0  9993
2 23439  64.8149 135.4539 0160354 198.3890 309.0605 11.27566599956501
JAS-2 (FO-29)           
1 24278U 96046B   18077.57324171  .00000004  00000-0  41576-4 0  9992
2 24278  98.5259 288.7699 0350170 346.1931  12.9819 13.53082136 65738
TECHSAT 1B (GO-32)      
1 25397U 98043D   18077.43794628 -.00000014  00000-0  12883-4 0  9998
2 25397  98.6420  19.4185 0000386 342.6952  17.4213 14.23641553 22593
ISS (ZARYA)             
1 25544U 98067A   18077.85386574  .00001917  00000-0  36196-4 0  9996
2 25544  51.6417 109.0445 0001872 212.5838 128.6757 15.54110197104461
PCSAT (NO-44)           
1 26931U 01043C   18077.46366323 -.00000029  00000-0  20836-4 0  9990
2 26931  67.0498 103.5041 0006543 283.0106  77.0265 14.30497362859502
SAUDISAT 1C (SO-50)     
1 27607U 02058C   18077.25169571  .00000053  00000-0  28369-4 0  9996
2 27607  64.5571   7.9873 0054631 349.6452  10.3520 14.75429376819544
CUTE-1 (CO-55)          
1 27844U 03031E   18077.54846644  .00000060  00000-0  46787-4 0  9998
2 27844  98.6894  87.5323 0008633 274.2964  85.7227 14.22100265763317
CUBESAT XI-IV (CO-57)   
1 27848U 03031J   18077.55299372  .00000035  00000-0  35959-4 0  9994
2 27848  98.6981  87.9036 0008557 285.6818  74.3415 14.21705906763159
MOZHAYETS 4 (RS-22)     
1 27939U 03042A   18077.57748935  .00000141  00000-0  33797-4 0  9999
2 27939  97.9746 219.1306 0014291  77.9171 346.5513 14.66665973773394
CUBESAT XI-V (CO-58)    
1 28895U 05043F   18077.41440524  .00000156  00000-0  38720-4 0  9997
2 28895  97.8948 232.6150 0016679   1.3226 358.8018 14.63519591660369
CUTE-1.7+APD II (CO-65) 
1 32785U 08021C   18077.47390289  .00000288  00000-0  36970-4 0  9998
2 32785  97.5519  93.9634 0012592 346.0962  13.9907 14.88078114535617
DELFI-C3 (DO-64)        
1 32789U 08021G   18077.61442874  .00001547  00000-0  11073-3 0  9991
2 32789  97.5236 134.6816 0011085 242.3754 117.6348 15.05829619538051
SEEDS II (CO-66)        
1 32791U 08021J   18077.50854893  .00000344  00000-0  40626-4 0  9991
2 32791  97.5429  99.1428 0012393 326.2583  33.7846 14.90490707535926
YUBILEINY (RS-30)       
1 32953U 08025A   18077.57487333  .00000001  00000-0 -65088-4 0  9993
2 32953  82.5000  69.0268 0020167  49.8611 310.4232 12.43082332445517
KKS-1 (KISEKI)          
1 33499U 09002H   18077.56805133  .00000164  00000-0  32230-4 0  9998
2 33499  98.3518 256.4064 0008476 214.6941 145.3715 14.75304207491398
SWISSCUBE               
1 35932U 09051B   18077.38980974  .00000160  00000-0  47087-4 0  9995
2 35932  98.5305 226.4383 0008742 125.3433 234.8582 14.56131470450221
BEESAT                  
1 35933U 09051C   18077.56100691  .00000126  00000-0  39523-4 0  9994
2 35933  98.5347 228.1024 0006781 134.8197 225.3552 14.56238661450279
ITUPSAT 1               
1 35935U 09051E   18077.35842193  .00000107  00000-0  35693-4 0  9996
2 35935  98.5457 228.1493 0009142 132.5434 227.6536 14.55418916450084
XIWANG-1 (HOPE-1)       
1 36122U 09072B   18077.56654537 -.00000050  00000-0 -19673-4 0  9993
2 36122 100.0819  96.4194 0007055 326.2888  33.7776 13.16343808396628
JUGNU                   
1 37839U 11058B   18077.50097712  .00000306  00000-0  21529-4 0  9991
2 37839  19.9606 227.1522 0019024 327.2817  81.4408 14.12612401332533
SRMSAT                  
1 37841U 11058D   18075.91330111  .00000313  00000-0  26877-4 0  9999
2 37841  19.9722 284.0819 0011825 196.9956 256.6585 14.10600748331745
M-CUBED & EXP-1 PRIME   
1 37855U 11061F   18077.61803772  .00002280  00000-0  12414-3 0  9991
2 37855 101.7249  93.8007 0177202 350.3141   9.4669 15.04175978347563
STRAND-1                
1 39090U 13009E   18077.53660109  .00000053  00000-0  34092-4 0  9997
2 39090  98.5306 285.0532 0008736 200.0821 160.0022 14.35015222264802
SOMP                    
1 39134U 13015E   18077.34742418  .00001900  00000-0  99746-4 0  9995
2 39134  64.8639  60.7019 0021496 222.2145 137.7328 15.18903516271102
BEESAT-3                
1 39135U 13015F   18077.41955652  .00001641  00000-0  93324-4 0  9998
2 39135  64.8682  72.6591 0026701 246.8307 113.0005 15.16465624270495
BEESAT-2                
1 39136U 13015G   18077.48957111  .00001479  00000-0  86316-4 0  9990
2 39136  64.8686  74.9771 0027413 246.1053 113.7199 15.15943218270846
ZACUBE-1 (TSHEPISOSAT)  
1 39417U 13066B   18077.57203225  .00000299  00000-0  43982-4 0  9999
2 39417  97.5974 111.0031 0060711  92.0720 268.7447 14.80891681233382
GOMX 1                  
1 39430U 13066Q   18077.50558067  .00000185  00000-0  43006-4 0  9995
2 39430  97.6897  60.9568 0150171 256.7144 101.7273 14.59039247229924
EAGLE 2                 
1 39436U 13066W   18076.91104185  .00133392  00000-0  13516-2 0  9991
2 39436  97.7138 205.9868 0004574 199.9573 160.1507 15.64812589238993
CUBEBUG-2 (LO-74)       
1 39440U 13066AA  18077.61706121  .00000258  00000-0  42785-4 0  9998
2 39440  97.6075  98.2085 0081799 129.0575 231.7951 14.75626518231369
FUNCUBE-1 (AO-73)       
1 39444U 13066AE  18077.61522985  .00000370  00000-0  51972-4 0  9999
2 39444  97.5985 112.4541 0059841  87.7983 273.0081 14.81659262231658
UWE-3                   
1 39446U 13066AG  18077.59183613  .00000267  00000-0  42044-4 0  9994
2 39446  97.6011 104.2350 0071759 110.8811 250.0103 14.78160136231145
SPROUT                  
1 39770U 14029E   18077.46928574  .00001061  00000-0  12540-3 0  9993
2 39770  97.8714 179.3081 0010129 139.8006 220.3963 14.86721001206882
UNISAT-6                
1 40012U 14033C   18077.57730191  .00000238  00000-0  42972-4 0  9995
2 40012  97.8220 317.1378 0059516 130.2298 230.4139 14.73777514201357
DUCHIFAT-1              
1 40021U 14033M   18077.34827246  .00000463  00000-0  53600-4 0  9998
2 40021  97.9174 355.9040 0014276 114.8703 245.4001 14.90225794203426
FUNCUBE-3 (EO-79)       
1 40025U 14033R   18077.34080872  .00000342  00000-0  42664-4 0  9992
2 40025  97.9081 352.9166 0013719 120.4667 239.7907 14.88655880202763
NUDT-PHONESAT           
1 40900U 15049B   18077.52538826  .00003039  00000-0  14024-3 0  9993
2 40900  97.4430  86.8396 0013248 354.5354   5.5735 15.20918835138132
ZDPS 2A                 
1 40901U 15049C   18077.57895986  .00001254  00000-0  66885-4 0  9992
2 40901  97.4603  85.3460 0013682   0.0593   0.0639 15.16915257137920
ZDPS 2B                 
1 40902U 15049D   18077.60650608  .00001190  00000-0  64011-4 0  9995
2 40902  97.4496  83.5463 0013664 357.0844   3.0307 15.16717577137917
XW-2A                   
1 40903U 15049E   18077.61737346  .00002819  00000-0  72318-4 0  9990
2 40903  97.3947 111.5379 0014306   4.5490 355.5884 15.40125986139866
KAITUO 1A               
1 40904U 15049F   18077.52836308  .00000711  00000-0  41602-4 0  9990
2 40904  97.4587  82.8114 0014983 359.3442 115.2795 15.14920051137771
2015-049G               
1 40905U 15049G   18077.59930637  .00000584  00000-0  35811-4 0  9991
2 40905  97.4584  81.1080 0015502 350.3812   9.7121 15.13887440137710
XW-2C                   
1 40906U 15049H   18077.57554136  .00000944  00000-0  53884-4 0  9996
2 40906  97.4603  82.7356 0014733 350.5723   9.5231 15.15061347137772
XW-2D                   
1 40907U 15049J   18077.60278576  .00001010  00000-0  57222-4 0  9997
2 40907  97.4576  82.4708 0014040 348.6478  11.4436 15.15202505137789
LILACSAT 2              
1 40908U 15049K   18077.56771902  .00000536  00000-0  33575-4 0  9991
2 40908  97.4686  81.9101 0015678 348.8852  11.2031 15.13433952137665
XW-2F                   
1 40910U 15049M   18077.55481602  .00001494  00000-0  80341-4 0  9995
2 40910  97.4582  83.5755 0014661 344.6466  15.4320 15.16330989137725
XW-2B                   
1 40911U 15049N   18077.55099756  .00000969  00000-0  55091-4 0  9991
2 40911  97.4613  82.9226 0013967 349.3960  10.6976 15.15149932137679
KAITUO 1B               
1 40912U 15049P   18077.55991001  .00001548  00000-0  78123-4 0  9991
2 40912  97.4517  86.1776 0014725 333.6592 143.4449 15.18523378137919
TIANWANG 1C (TW-1C)     
1 40926U 15051B   18077.60144584  .00009833  00000-0  19294-3 0  9999
2 40926  97.1944 120.4045 0008065 245.9162 236.9678 15.47505640139293
TIANWANG 1A (TW-1A)     
1 40928U 15051D   18077.60700970  .00004114  00000-0  11151-3 0  9999
2 40928  97.1958 113.3635 0010246 292.9951 186.0608 15.38157855138858
LAPAN-A2 (IO-86)        
1 40931U 15052B   18077.34570214  .00000683  00000-0  60414-5 0  9996
2 40931   6.0033  77.7963 0012941 164.0911 196.0435 14.76568467133558
E-ST@R-II               
1 41459U 16025D   18077.38085006  .00002311  00000-0  12404-3 0  9991
2 41459  98.1459 135.2180 0172905  92.8023 269.3030 15.04108101103771
AAUSAT 4                
1 41460U 16025E   18077.50897564  .00003591  00000-0  18856-3 0  9995
2 41460  98.1410 135.7215 0164565  89.0674 272.9453 15.05432787103845
NUSAT 1 (LO-87)         
1 41557U 16033B   18077.41417569  .00002035  00000-0  76857-4 0  9992
2 41557  97.4399 161.7937 0015401 116.1508 244.1317 15.28085973100294
BEESAT-4                
1 41619U 16040W   18077.14276950  .00001983  00000-0  90238-4 0  9996
2 41619  97.4256 141.5157 0011671 181.6032 178.5169 15.21832708 84249
ALSAT 1N                
1 41789U 16059G   18077.40761972  .00000090  00000-0  26333-4 0  9999
2 41789  98.1291 141.4242 0028913  16.3582 343.8552 14.64134304 78732
CAS-2T & KS-1Q          
1 41847U 16066G   18077.58024552  .00000093  00000-0  24185-4 0  9993
2 41847  98.7579 104.5380 0366629 153.5401 208.5029 14.37867906 71301
NAYIF-1 (EO-88)         
1 42017U 17008BX  18077.57029119  .00002273  00000-0  96417-4 0  9992
2 42017  97.4581 143.1369 0005949 353.8716   6.2447 15.24133147 60265
LILACSAT-1              
1 42725U 98067ME  18077.56928778  .00023064  00000-0  23414-3 0  9997
2 42725  51.6358  98.8417 0003365 263.9025  96.1587 15.65095137 46324
MAX VALIER SAT          
1 42778U 17036P   18077.47097729  .00001425  00000-0  67064-4 0  9992
2 42778  97.4145 138.6484 0013503  34.6933 325.5180 15.21098127 40716
FOX-1B (AO-91)          
1 43017U 17073E   18077.35970415  .00000574  00000-0  50979-4 0  9990
2 43017  97.7026  12.3170 0259510 207.0027 151.7485 14.77942129 17692
FOX-1D (AO-92)          
1 43137U 18004AC  18077.20904376  .00001509  00000-0  68184-4 0  9991
2 43137  97.5447 139.6196 0011018  63.9289 296.3080 15.22494517  9871
